{
  "type": "FeatureCollection",
  "features": [
    {
      "type": "Feature",
      "properties": {
        "norad_id": 34815,
        "name": "COSMOS 2251 DEB",
        "group": "cosmos-2251-debris",
        "lat": 34.05134751067557,
        "lon": -115.3846175247409,
        "alt_km": 634.705333846885,
        "timestamp": "2025-12-16T23:36:36.593247+00:00",
        "meta_object_name": "COSMOS 2251 DEB",
        "meta_object_id": "1993-036ABE",
        "meta_epoch": "2025-12-16T02:20:12.471648",
        "meta_mean_motion": 14.78356018,
        "meta_eccentricity": 0.00588609,
        "meta_inclination": 74.0453,
        "meta_ra_of_asc_node": 235.2075,
        "meta_arg_of_pericenter": 303.568,
        "meta_mean_anomaly": 55.9883,
        "meta_ephemeris_type": 0,
        "meta_classification_type": "U",
        "meta_norad_cat_id": 34815,
        "meta_element_set_no": 999,
        "meta_rev_at_epoch": 88677,
        "meta_bstar": 0.00057447515,
        "meta_mean_motion_dot": 4.269e-05,
        "meta_mean_motion_ddot": 0,
        "tle_line1": "1 34815U 93036ABE 25350.09736657  .00004269  00000+0  57448-3 0  9991",
        "tle_line2": "2 34815  74.0453 235.2075 0058860 303.5680  55.9883 14.78356018886779"
      },
      "geometry": {
        "type": "Point",
        "coordinates": [
          -115.3846175247409,
          34.05134751067557
        ]
      }
    },
    {
      "type": "Feature",
      "properties": {
        "norad_id": 34816,
        "name": "COSMOS 2251 DEB",
        "group": "cosmos-2251-debris",
        "lat": -39.62024690578655,
        "lon": 122.34986700677771,
        "alt_km": 1172.1956592567858,
        "timestamp": "2025-12-16T23:36:36.593273+00:00",
        "meta_object_name": "COSMOS 2251 DEB",
        "meta_object_id": "1993-036ABF",
        "meta_epoch": "2025-12-15T18:06:42.079680",
        "meta_mean_motion": 13.58332319,
        "meta_eccentricity": 0.03733711,
        "meta_inclination": 73.8856,
        "meta_ra_of_asc_node": 138.2013,
        "meta_arg_of_pericenter": 202.1531,
        "meta_mean_anomaly": 224.4448,
        "meta_ephemeris_type": 0,
        "meta_classification_type": "U",
        "meta_norad_cat_id": 34816,
        "meta_element_set_no": 999,
        "meta_rev_at_epoch": 82824,
        "meta_bstar": 0.0011149526,
        "meta_mean_motion_dot": 1.255e-05,
        "meta_mean_motion_ddot": 0,
        "tle_line1": "1 34816U 93036ABF 25349.75465370  .00001255  00000+0  11150-2 0  9995",
        "tle_line2": "2 34816  73.8856 138.2013 0373371 202.1531 224.4448 13.58332319828247"
      },
      "geometry": {
        "type": "Point",
        "coordinates": [
          122.34986700677771,
          -39.62024690578655
        ]
      }
    },
    {
      "type": "Feature",
      "properties": {
        "norad_id": 34818,
        "name": "COSMOS 2251 DEB",
        "group": "cosmos-2251-debris",
        "lat": 37.98152761478326,
        "lon": -57.94965027174352,
        "alt_km": 751.3150605271867,
        "timestamp": "2025-12-16T23:36:36.593285+00:00",
        "meta_object_name": "COSMOS 2251 DEB",
        "meta_object_id": "1993-036ABH",
        "meta_epoch": "2025-12-16T07:26:50.142048",
        "meta_mean_motion": 14.3697169,
        "meta_eccentricity": 0.00243056,
        "meta_inclination": 74.0362,
        "meta_ra_of_asc_node": 290.3739,
        "meta_arg_of_pericenter": 5.1622,
        "meta_mean_anomaly": 152.1141,
        "meta_ephemeris_type": 0,
        "meta_classification_type": "U",
        "meta_norad_cat_id": 34818,
        "meta_element_set_no": 999,
        "meta_rev_at_epoch": 87421,
        "meta_bstar": 0.00020479169,
        "meta_mean_motion_dot": 5.82e-06,
        "meta_mean_motion_ddot": 0,
        "tle_line1": "1 34818U 93036ABH 25350.31030257  .00000582  00000+0  20479-3 0  9990",
        "tle_line2": "2 34818  74.0362 290.3739 0024305   5.1622 152.1141 14.36971690874214"
      },
      "geometry": {
        "type": "Point",
        "coordinates": [
          -57.94965027174352,
          37.98152761478326
        ]
      }
    },
    {
      "type": "Feature",
      "properties": {
        "norad_id": 34819,
        "name": "COSMOS 2251 DEB",
        "group": "cosmos-2251-debris",
        "lat": 9.822108902838401,
        "lon": 137.34425776132514,
        "alt_km": 690.1307173104797,
        "timestamp": "2025-12-16T23:36:36.593296+00:00",
        "meta_object_name": "COSMOS 2251 DEB",
        "meta_object_id": "1993-036ABJ",
        "meta_epoch": "2025-12-16T02:47:00.153600",
        "meta_mean_motion": 14.64020669,
        "meta_eccentricity": 0.00156426,
        "meta_inclination": 74.0171,
        "meta_ra_of_asc_node": 136.1678,
        "meta_arg_of_pericenter": 230.4612,
        "meta_mean_anomaly": 248.0037,
        "meta_ephemeris_type": 0,
        "meta_classification_type": "U",
        "meta_norad_cat_id": 34819,
        "meta_element_set_no": 999,
        "meta_rev_at_epoch": 88278,
        "meta_bstar": 0.0011169462,
        "meta_mean_motion_dot": 5.841e-05,
        "meta_mean_motion_ddot": 0,
        "tle_line1": "1 34819U 93036ABJ 25350.11597400  .00005841  00000+0  11169-2 0  9995",
        "tle_line2": "2 34819  74.0171 136.1678 0015642 230.4612 248.0037 14.64020669882780"
      },
      "geometry": {
        "type": "Point",
        "coordinates": [
          137.34425776132514,
          9.822108902838401
        ]
      }
    },
    {
      "type": "Feature",
      "properties": {
        "norad_id": 34823,
        "name": "COSMOS 2251 DEB",
        "group": "cosmos-2251-debris",
        "lat": -70.76800026496755,
        "lon": 39.136820514051394,
        "alt_km": 739.289902591685,
        "timestamp": "2025-12-16T23:36:36.593307+00:00",
        "meta_object_name": "COSMOS 2251 DEB",
        "meta_object_id": "1993-036ABN",
        "meta_epoch": "2025-12-15T06:43:32.774880",
        "meta_mean_motion": 14.54950016,
        "meta_eccentricity": 0.01545068,
        "meta_inclination": 74.0412,
        "meta_ra_of_asc_node": 97.4704,
        "meta_arg_of_pericenter": 181.6256,
        "meta_mean_anomaly": 178.4428,
        "meta_ephemeris_type": 0,
        "meta_classification_type": "U",
        "meta_norad_cat_id": 34823,
        "meta_element_set_no": 999,
        "meta_rev_at_epoch": 88418,
        "meta_bstar": 0.00053820564,
        "meta_mean_motion_dot": 2.686e-05,
        "meta_mean_motion_ddot": 0,
        "tle_line1": "1 34823U 93036ABN 25349.28024045  .00002686  00000+0  53821-3 0  9992",
        "tle_line2": "2 34823  74.0412  97.4704 0154506 181.6256 178.4428 14.54950016884189"
      },
      "geometry": {
        "type": "Point",
        "coordinates": [
          39.136820514051394,
          -70.76800026496755
        ]
      }
    },
    {
      "type": "Feature",
      "properties": {
        "norad_id": 34845,
        "name": "COSMOS 2251 DEB",
        "group": "cosmos-2251-debris",
        "lat": 65.51645759086618,
        "lon": -78.55618965695136,
        "alt_km": 748.0776006421156,
        "timestamp": "2025-12-16T23:36:36.593317+00:00",
        "meta_object_name": "COSMOS 2251 DEB",
        "meta_object_id": "1993-036ABP",
        "meta_epoch": "2025-12-15T18:52:42.405888",
        "meta_mean_motion": 14.45864991,
        "meta_eccentricity": 0.00224498,
        "meta_inclination": 74.0238,
        "meta_ra_of_asc_node": 142.662,
        "meta_arg_of_pericenter": 303.0339,
        "meta_mean_anomaly": 56.8662,
        "meta_ephemeris_type": 0,
        "meta_classification_type": "U",
        "meta_norad_cat_id": 34845,
        "meta_element_set_no": 999,
        "meta_rev_at_epoch": 87510,
        "meta_bstar": 0.00028097651,
        "meta_mean_motion_dot": 9.74e-06,
        "meta_mean_motion_ddot": 0,
        "tle_line1": "1 34845U 93036ABP 25349.78660192  .00000974  00000+0  28098-3 0  9996",
        "tle_line2": "2 34845  74.0238 142.6620 0022449 303.0339  56.8662 14.45864991875108"
      },
      "geometry": {
        "type": "Point",
        "coordinates": [
          -78.55618965695136,
          65.51645759086618
        ]
      }
    },
    {
      "type": "Feature",
      "properties": {
        "norad_id": 34846,
        "name": "COSMOS 2251 DEB",
        "group": "cosmos-2251-debris",
        "lat": 63.84234877220347,
        "lon": -70.49735318842825,
        "alt_km": 734.2695579836582,
        "timestamp": "2025-12-16T23:36:36.593327+00:00",
        "meta_object_name": "COSMOS 2251 DEB",
        "meta_object_id": "1993-036ABQ",
        "meta_epoch": "2025-12-15T19:05:23.449920",
        "meta_mean_motion": 14.47235054,
        "meta_eccentricity": 0.00261482,
        "meta_inclination": 74.031,
        "meta_ra_of_asc_node": 256.0607,
        "meta_arg_of_pericenter": 322.0428,
        "meta_mean_anomaly": 37.8887,
        "meta_ephemeris_type": 0,
        "meta_classification_type": "U",
        "meta_norad_cat_id": 34846,
        "meta_element_set_no": 999,
        "meta_rev_at_epoch": 87448,
        "meta_bstar": 0.00055747484,
        "meta_mean_motion_dot": 2.019e-05,
        "meta_mean_motion_ddot": 0,
        "tle_line1": "1 34846U 93036ABQ 25349.79541030  .00002019  00000+0  55747-3 0  9990",
        "tle_line2": "2 34846  74.0310 256.0607 0026148 322.0428  37.8887 14.47235054874487"
      },
      "geometry": {
        "type": "Point",
        "coordinates": [
          -70.49735318842825,
          63.84234877220347
        ]
      }
    }
  ]
}